1 43013U 17073A   26086.80208742  .00000081  00000+0  59509-4 0  9992
2 43013  98.7712  27.0114 0001866 113.2704 246.8668 14.19540671432929
